STARLINK-35148          
1 65844U 25221X   25292.25002315 -.01549562  00000+0 -28461-1 0  9992
2 65844  53.1602  27.7831 0001037  86.7321 272.6666 15.51576986  4431
STARLINK-35302          
1 65845U 25221Y   25292.25002315 -.01562969  00000+0 -28727-1 0  9994
2 65845  53.1603  27.7760 0001013  93.6965 269.5348 15.51583163  4436
STARLINK-35290          
1 65846U 25221Z   25292.25002315 -.01577796  00000+0 -29022-1 0  9998
2 65846  53.1604  27.7686 0000984  95.7671 271.2965 15.51590488  4431
STARLINK-35262          
1 65847U 25221AA  25292.25002315 -.01582024  00000+0 -29106-1 0  9992
2 65847  53.1601  27.7592 0000936  93.8398 277.0561 15.51593127  4436
STARLINK-35308          
1 65848U 25221AB  25292.25002315 -.01562558  00000+0 -28720-1 0  9994
2 65848  53.1604  27.7715 0001015  91.2645 273.8843 15.51582339  4433
STARLINK-35231          
1 65849U 25221AC  25292.25002315 -.01573632  00000+0 -28940-1 0  9994
2 65849  53.1604  27.7633 0000958  88.6096 280.3716 15.51587510  4436
STARLINK-35252          
1 65850U 25221AD  25292.25002315 -.01567767  00000+0 -28822-1 0  9997
2 65850  53.1599  27.7564 0000902  91.5966 281.2158 15.51587085  4439
SHIYAN-30 01            
1 65851U 25222A   25292.23447206  .00006319  00000+0  59982-3 0  9990
2 65851  34.9883 267.9568 0005008 147.1747 212.9270 14.92914230  3011
SHIYAN-30 02            
1 65852U 25222B   25292.23378886  .00006043  00000+0  57362-3 0  9992
2 65852  34.9969 267.9578 0006284 149.1024 211.0052 14.92915765  2993
CZ-2D R/B               
1 65853U 25222C   25292.28358538  .00003799  00000+0  29740-3 0  9994
2 65853  34.9022 266.2259 0055639 148.5943 211.8103 14.99276572  3037
STARLINK-35208          
1 65854U 25223A   25292.25002315 -.01909385  00000+0 -21824-1 0  9994
2 65854  53.1598 235.0146 0001104  83.2213   8.2890 15.64691287  3736
STARLINK-35200          
1 65855U 25223B   25292.25002315 -.01909250  00000+0 -21821-1 0  9993
2 65855  53.1596 235.0110 0001152  87.7279   5.6977 15.64691633  3732
STARLINK-35459          
1 65856U 25223C   25292.25002315 -.01909384  00000+0 -21823-1 0  9994
2 65856  53.1596 235.0065 0001130  86.8663   8.4769 15.64691380  3734
STARLINK-35489          
1 65857U 25223D   25292.25002315 -.01906620  00000+0 -21789-1 0  9996
2 65857  53.1596 235.0031 0001154  88.1180   9.1421 15.64689761  3736
STARLINK-35199          
1 65858U 25223E   25292.25002315 -.01908973  00000+0 -21817-1 0  9992
2 65858  53.1596 234.9992 0001201  86.0285  13.1482 15.64691245  3739
STARLINK-35408          
1 65859U 25223F   25292.25002315 -.01914232  00000+0 -21881-1 0  9999
2 65859  53.1600 234.9911 0001148  85.7049  17.3006 15.64697207  3733
STARLINK-35303          
1 65860U 25223G   25292.25002315 -.01908352  00000+0 -21811-1 0  9990
2 65860  53.1600 234.9878 0001142  86.3485  18.5803 15.64690275  3738
STARLINK-35258          
1 65861U 25223H   25292.25002315 -.01907402  00000+0 -21797-1 0  9999
2 65861  53.1599 234.9944 0001160  84.5329  16.5592 15.64691547  3733
STARLINK-35386          
1 65862U 25223J   25292.25002315 -.01905319  00000+0 -21773-1 0  9999
2 65862  53.1600 234.9784 0001141  88.6848  20.0770 15.64688869  3730
STARLINK-35469          
1 65863U 25223K   25292.25002315 -.01903895  00000+0 -21755-1 0  9997
2 65863  53.1600 234.9825 0001230  87.3410  19.5054 15.64687189  3739
STARLINK-35471          
1 65864U 25223L   25292.25002315 -.01910650  00000+0 -21838-1 0  9997
2 65864  53.1599 234.9737 0001251  86.5638  24.1135 15.64692263  3736
STARLINK-35475          
1 65865U 25223M   25292.25002315 -.01912164  00000+0 -21856-1 0  9990
2 65865  53.1597 234.9693 0001227  84.6934  27.9000 15.64693845  3736
STARLINK-35312          
1 65866U 25223N   25292.25002315 -.01907279  00000+0 -21797-1 0  9996
2 65866  53.1599 234.9661 0001213  87.6149  26.8977 15.64689892  3738
STARLINK-35456          
1 65867U 25223P   25292.25002315 -.01905763  00000+0 -21778-1 0  9992
2 65867  53.1600 234.9617 0001214  83.1716  33.2595 15.64688504  3732
STARLINK-35450          
1 65868U 25223Q   25292.25002315 -.01905458  00000+0 -21773-1 0  9999
2 65868  53.1598 234.9589 0001228  85.2588  33.0861 15.64689936  3736
STARLINK-35441          
1 65869U 25223R   25292.25002315 -.01904192  00000+0 -21759-1 0  9998
2 65869  53.1598 234.9541 0001189  89.0486  31.2160 15.64687307  3732
STARLINK-35433          
1 65870U 25223S   25292.25002315 -.01907350  00000+0 -21798-1 0  9992
2 65870  53.1597 234.9502 0001232  86.0132  36.1676 15.64689409  3735
STARLINK-35465          
1 65871U 25223T   25292.25002315 -.01906972  00000+0 -21792-1 0  9996
2 65871  53.1599 234.9461 0001275  89.7562  34.3399 15.64690039  3739
STARLINK-34108          
1 65872U 25223U   25292.25002315 -.01907109  00000+0 -21795-1 0  9993
2 65872  53.1596 234.9380 0001334  87.7070  40.2254 15.64688372  3637
STARLINK-35423          
1 65873U 25223V   25292.25002315 -.01908386  00000+0 -21810-1 0  9990
2 65873  53.1592 234.9335 0001257  89.0554  40.7919 15.64690407  3736
STARLINK-35425          
1 65874U 25223W   25292.25002315 -.01900483  00000+0 -21713-1 0  9993
2 65874  53.1594 234.9412 0001319  91.8264  34.1898 15.64684375  3733
STARLINK-34688          
1 65875U 25223X   25292.25002315 -.01903501  00000+0 -21749-1 0  9997
2 65875  53.1598 234.9299 0001269  91.3585  40.4043 15.64688465  3732
STARLINK-34438          
1 65876U 25223Y   25292.25002315 -.01906082  00000+0 -21780-1 0  9990
2 65876  53.1598 234.9265 0001328  87.4264  46.2540 15.64689829  3733
STARLINK-35462          
1 65877U 25223Z   25292.25002315 -.01907084  00000+0 -21794-1 0  9999
2 65877  53.1596 234.9138 0001299  92.1632  47.2692 15.64688781  3735
STARLINK-35453          
1 65878U 25223AA  25292.25002315 -.01911427  00000+0 -21846-1 0  9994
2 65878  53.1596 234.9217 0001340  84.7353  50.8608 15.64693471  3737
STARLINK-35418          
1 65879U 25223AB  25292.25002315 -.01911118  00000+0 -21844-1 0  9990
2 65879  53.1591 234.9096 0001237  93.7696  47.5778 15.64692373  3734
STARLINK-35445          
1 65880U 25223AC  25292.25002315 -.01904507  00000+0 -21763-1 0  9996
2 65880  53.1599 234.9179 0001249  91.6480  45.8687 15.64687171  3580
STARLINK-35464          
1 65881U 25223AD  25292.25002315 -.01907961  00000+0 -21804-1 0  9990
2 65881  53.1598 234.9062 0001238  94.4168  48.8473 15.64690723  3687
STARLINK-35270          
1 65882U 25224A   25292.25002315 -.01431140  00000+0 -76423-2 0  9991
2 65882  53.1513 313.5458 0001217  77.2841  21.3710 15.82287375  3104
STARLINK-35367          
1 65883U 25224B   25292.25002315 -.01449688  00000+0 -77761-2 0  9994
2 65883  53.1517 313.5355 0001181  79.3193  24.3933 15.82227821  3108
STARLINK-35384          
1 65884U 25224C   25292.25002315 -.01458941  00000+0 -78351-2 0  9993
2 65884  53.1510 313.5255 0001149  83.9656  24.0579 15.82220217  3105
STARLINK-35415          
1 65885U 25224D   25292.25002315 -.01481767  00000+0 -79787-2 0  9990
2 65885  53.1514 313.5164 0001226  75.9442  36.6105 15.82206675  3059
STARLINK-35413          
1 65886U 25224E   25292.25002315 -.01482110  00000+0 -79953-2 0  9999
2 65886  53.1507 313.5064 0000940  89.6158  27.4944 15.82171205  3058
STARLINK-35332          
1 65887U 25224F   25292.25002315 -.01492437  00000+0 -80733-2 0  9991
2 65887  53.1508 313.5009 0001048  75.5691  44.2046 15.82131080  3131
STARLINK-35362          
1 65888U 25224G   25292.25002315 -.01446695  00000+0 -77637-2 0  9996
2 65888  53.1512 313.5387 0001123  81.6615  20.1490 15.82212870  3104
STARLINK-35193          
1 65889U 25224H   25292.25002315 -.01213874  00000+0 -53907-2 0  9992
2 65889  53.1510 313.3846 0000978  88.6484  87.2251 15.86105104  3136
STARLINK-34542          
1 65890U 25224J   25292.25002315 -.01459392  00000+0 -78397-2 0  9991
2 65890  53.1510 313.5298 0001266  77.0825  28.9599 15.82213839  3153
STARLINK-34791          
1 65891U 25224K   25292.25002315 -.01197913  00000+0 -53059-2 0  9998
2 65891  53.1509 313.3974 0001095  85.1352  84.3957 15.86124181  3155
STARLINK-34853          
1 65892U 25224L   25292.25002315 -.01476864  00000+0 -79492-2 0  9993
2 65892  53.1513 313.5207 0001159  69.6184  40.8117 15.82206269  3084
STARLINK-34921          
1 65893U 25224M   25292.25002315 -.01219855  00000+0 -54131-2 0  9992
2 65893  53.1507 313.3805 0001032  88.0729  89.6374 15.86132258  3154
STARLINK-34672          
1 65894U 25224N   25292.25002315 -.01209630  00000+0 -53704-2 0  9998
2 65894  53.1509 313.3896 0001057  84.1971  89.0804 15.86101038  3154
STARLINK-34898          
1 65895U 25224P   25292.25002315 -.01224481  00000+0 -54311-2 0  9995
2 65895  53.1508 313.3705 0001083  81.0421 101.3719 15.86150877  3156
STARLINK-34906          
1 65896U 25224Q   25292.25002315 -.01221033  00000+0 -54128-2 0  9992
2 65896  53.1508 313.3764 0001036  86.6147  92.9446 15.86155385  3157
STARLINK-34934          
1 65897U 25224R   25292.25002315 -.01259400  00000+0 -56085-2 0  9996
2 65897  53.1507 313.3566 0001167  84.2542 104.6454 15.86140874  3107
STARLINK-34936          
1 65898U 25224S   25292.25002315 -.01233567  00000+0 -54757-2 0  9997
2 65898  53.1506 313.3639 0001177  81.4324 103.8337 15.86152628  3152
STARLINK-35272          
1 65899U 25224T   25292.25002315 -.01303778  00000+0 -58351-2 0  9994
2 65899  53.1512 313.3493 0000900  85.7826 106.6326 15.86136007  3146
STARLINK-35264          
1 65900U 25224U   25292.25002315 -.01350970  00000+0 -60845-2 0  9994
2 65900  53.1504 313.3405 0000944  81.9578 114.3366 15.86108395  3142
STARLINK-35249          
1 65901U 25224V   25292.25002315 -.01368529  00000+0 -61758-2 0  9998
2 65901  53.1509 313.3357 0000912  89.8870 109.0596 15.86106204  3133
STARLINK-35278          
1 65902U 25224W   25292.25002315 -.01397154  00000+0 -63438-2 0  9992
2 65902  53.1508 313.3167 0001012  91.0558 116.6949 15.86042533  3154
